{
  "type": "FeatureCollection",
  "features": [
    {
      "type": "Feature",
      "properties": {
        "norad_id": 15362,
        "name": "NOVA 3",
        "group": "nnss",
        "lat": 71.91981700685601,
        "lon": 80.29888917882212,
        "alt_km": 1181.8142213461324,
        "timestamp": "2025-12-24T09:46:31.272666+00:00",
        "meta_object_name": "NOVA 3",
        "meta_object_id": "1984-110A",
        "meta_epoch": "2025-12-24T04:15:57.846240",
        "meta_mean_motion": 13.23045902,
        "meta_eccentricity": 0.0029883,
        "meta_inclination": 90.1217,
        "meta_ra_of_asc_node": 80.6692,
        "meta_arg_of_pericenter": 298.9641,
        "meta_mean_anomaly": 120.0172,
        "meta_ephemeris_type": 0,
        "meta_classification_type": "U",
        "meta_norad_cat_id": 15362,
        "meta_element_set_no": 999,
        "meta_rev_at_epoch": 98850,
        "meta_bstar": 0.00016434,
        "meta_mean_motion_dot": 7.7e-07,
        "meta_mean_motion_ddot": 0,
        "tle_line1": "1 15362U 84110A   25358.17775285  .00000077  00000+0  16434-3 0  9990",
        "tle_line2": "2 15362  90.1217  80.6692 0029883 298.9641 120.0172 13.23045902988501"
      },
      "geometry": {
        "type": "Point",
        "coordinates": [
          80.29888917882212,
          71.91981700685601
        ]
      }
    },
    {
      "type": "Feature",
      "properties": {
        "norad_id": 15935,
        "name": "OSCAR 30",
        "group": "nnss",
        "lat": -22.77803022124411,
        "lon": 100.1074393213682,
        "alt_km": 1092.3016282082508,
        "timestamp": "2025-12-24T09:46:31.272677+00:00",
        "meta_object_name": "OSCAR 30",
        "meta_object_id": "1985-066A",
        "meta_epoch": "2025-12-24T01:44:58.739712",
        "meta_mean_motion": 13.36080177,
        "meta_eccentricity": 0.0168937,
        "meta_inclination": 90.1654,
        "meta_ra_of_asc_node": 100.0325,
        "meta_arg_of_pericenter": 52.2294,
        "meta_mean_anomaly": 119.4525,
        "meta_ephemeris_type": 0,
        "meta_classification_type": "U",
        "meta_norad_cat_id": 15935,
        "meta_element_set_no": 999,
        "meta_rev_at_epoch": 96604,
        "meta_bstar": 0.00019005,
        "meta_mean_motion_dot": 1.15e-06,
        "meta_mean_motion_ddot": 0,
        "tle_line1": "1 15935U 85066A   25358.07290208  .00000115  00000+0  19005-3 0  9993",
        "tle_line2": "2 15935  90.1654 100.0325 0168937  52.2294 119.4525 13.36080177966047"
      },
      "geometry": {
        "type": "Point",
        "coordinates": [
          100.1074393213682,
          -22.77803022124411
        ]
      }
    },
    {
      "type": "Feature",
      "properties": {
        "norad_id": 15936,
        "name": "OSCAR 24",
        "group": "nnss",
        "lat": 48.15330764947455,
        "lon": 92.31164708641842,
        "alt_km": 994.2336979274187,
        "timestamp": "2025-12-24T09:46:31.272688+00:00",
        "meta_object_name": "OSCAR 24",
        "meta_object_id": "1985-066B",
        "meta_epoch": "2025-12-24T01:24:08.383968",
        "meta_mean_motion": 13.35937329,
        "meta_eccentricity": 0.0170106,
        "meta_inclination": 90.1791,
        "meta_ra_of_asc_node": 92.5056,
        "meta_arg_of_pericenter": 58.7246,
        "meta_mean_anomaly": 112.9277,
        "meta_ephemeris_type": 0,
        "meta_classification_type": "U",
        "meta_norad_cat_id": 15936,
        "meta_element_set_no": 999,
        "meta_rev_at_epoch": 96794,
        "meta_bstar": 0.00014323,
        "meta_mean_motion_dot": 8.9e-07,
        "meta_mean_motion_ddot": 0,
        "tle_line1": "1 15936U 85066B   25358.05843037  .00000089  00000+0  14323-3 0  9994",
        "tle_line2": "2 15936  90.1791  92.5056 0170106  58.7246 112.9277 13.35937329967946"
      },
      "geometry": {
        "type": "Point",
        "coordinates": [
          92.31164708641842,
          48.15330764947455
        ]
      }
    },
    {
      "type": "Feature",
      "properties": {
        "norad_id": 17070,
        "name": "POLAR BEAR",
        "group": "nnss",
        "lat": 86.23433172482528,
        "lon": -2.526277125835037,
        "alt_km": 943.2320195741486,
        "timestamp": "2025-12-24T09:46:31.272699+00:00",
        "meta_object_name": "POLAR BEAR",
        "meta_object_id": "1986-088A",
        "meta_epoch": "2025-12-24T01:08:30.795360",
        "meta_mean_motion": 13.75253077,
        "meta_eccentricity": 0.0041289,
        "meta_inclination": 89.617,
        "meta_ra_of_asc_node": 183.321,
        "meta_arg_of_pericenter": 86.7219,
        "meta_mean_anomaly": 27.0563,
        "meta_ephemeris_type": 0,
        "meta_classification_type": "U",
        "meta_norad_cat_id": 17070,
        "meta_element_set_no": 999,
        "meta_rev_at_epoch": 96134,
        "meta_bstar": 9.2847e-05,
        "meta_mean_motion_dot": 1.01e-06,
        "meta_mean_motion_ddot": 0,
        "tle_line1": "1 17070U 86088A   25358.04757865  .00000101  00000+0  92847-4 0  9995",
        "tle_line2": "2 17070  89.6170 183.3210 0041289  86.7219  27.0563 13.75253077961349"
      },
      "geometry": {
        "type": "Point",
        "coordinates": [
          -2.526277125835037,
          86.23433172482528
        ]
      }
    },
    {
      "type": "Feature",
      "properties": {
        "norad_id": 18361,
        "name": "OSCAR 27",
        "group": "nnss",
        "lat": 22.188131468399295,
        "lon": -100.13889974728788,
        "alt_km": 1025.086108873821,
        "timestamp": "2025-12-24T09:46:31.272710+00:00",
        "meta_object_name": "OSCAR 27",
        "meta_object_id": "1987-080A",
        "meta_epoch": "2025-12-23T22:16:33.536352",
        "meta_mean_motion": 13.44908878,
        "meta_eccentricity": 0.0103856,
        "meta_inclination": 90.3737,
        "meta_ra_of_asc_node": 79.6907,
        "meta_arg_of_pericenter": 191.5852,
        "meta_mean_anomaly": 168.2905,
        "meta_ephemeris_type": 0,
        "meta_classification_type": "U",
        "meta_norad_cat_id": 18361,
        "meta_element_set_no": 999,
        "meta_rev_at_epoch": 87707,
        "meta_bstar": 0.00016473,
        "meta_mean_motion_dot": 1.08e-06,
        "meta_mean_motion_ddot": 0,
        "tle_line1": "1 18361U 87080A   25357.92816593  .00000108  00000+0  16473-3 0  9999",
        "tle_line2": "2 18361  90.3737  79.6907 0103856 191.5852 168.2905 13.44908878877074"
      },
      "geometry": {
        "type": "Point",
        "coordinates": [
          -100.13889974728788,
          22.188131468399295
        ]
      }
    },
    {
      "type": "Feature",
      "properties": {
        "norad_id": 18362,
        "name": "OSCAR 29",
        "group": "nnss",
        "lat": 29.659074343973593,
        "lon": -99.61789906052415,
        "alt_km": 1055.3257559689791,
        "timestamp": "2025-12-24T09:46:31.272720+00:00",
        "meta_object_name": "OSCAR 29",
        "meta_object_id": "1987-080B",
        "meta_epoch": "2025-12-23T11:38:40.001280",
        "meta_mean_motion": 13.44450427,
        "meta_eccentricity": 0.01046277,
        "meta_inclination": 90.375,
        "meta_ra_of_asc_node": 80.1339,
        "meta_arg_of_pericenter": 216.0464,
        "meta_mean_anomaly": 154.8179,
        "meta_ephemeris_type": 0,
        "meta_classification_type": "U",
        "meta_norad_cat_id": 18362,
        "meta_element_set_no": 999,
        "meta_rev_at_epoch": 87654,
        "meta_bstar": 0.00017755719,
        "meta_mean_motion_dot": 1.15e-06,
        "meta_mean_motion_ddot": 0,
        "tle_line1": "1 18362U 87080B   25357.48518520  .00000115  00000+0  17756-3 0  9993",
        "tle_line2": "2 18362  90.3750  80.1339 0104627 216.0464 154.8179 13.44450427876542"
      },
      "geometry": {
        "type": "Point",
        "coordinates": [
          -99.61789906052415,
          29.659074343973593
        ]
      }
    },
    {
      "type": "Feature",
      "properties": {
        "norad_id": 19070,
        "name": "OSCAR 23",
        "group": "nnss",
        "lat": -51.57042720378791,
        "lon": 17.157841601974535,
        "alt_km": 1297.4360134389017,
        "timestamp": "2025-12-24T09:46:31.272731+00:00",
        "meta_object_name": "OSCAR 23",
        "meta_object_id": "1988-033A",
        "meta_epoch": "2025-12-24T01:16:30.251424",
        "meta_mean_motion": 13.27788942,
        "meta_eccentricity": 0.0190423,
        "meta_inclination": 90.3203,
        "meta_ra_of_asc_node": 16.7429,
        "meta_arg_of_pericenter": 148.5361,
        "meta_mean_anomaly": 267.2441,
        "meta_ephemeris_type": 0,
        "meta_classification_type": "U",
        "meta_norad_cat_id": 19070,
        "meta_element_set_no": 999,
        "meta_rev_at_epoch": 82403,
        "meta_bstar": 0.00014553,
        "meta_mean_motion_dot": 8.2e-07,
        "meta_mean_motion_ddot": 0,
        "tle_line1": "1 19070U 88033A   25358.05312791  .00000082  00000+0  14553-3 0  9990",
        "tle_line2": "2 19070  90.3203  16.7429 0190423 148.5361 267.2441 13.27788942824036"
      },
      "geometry": {
        "type": "Point",
        "coordinates": [
          17.157841601974535,
          -51.57042720378791
        ]
      }
    }
  ]
}